[{"OBJECT_NAME":"SSOT","OBJECT_ID":"2011-076E","EPOCH":"2026-03-09T22:23:33.856800","MEAN_MOTION":14.82272424,"ECCENTRICITY":0.00016181,"INCLINATION":97.8182,"RA_OF_ASC_NODE":131.6593,"ARG_OF_PERICENTER":92.448,"MEAN_ANOMALY":13.5994,"EPHEMERIS_TYPE":0,"CLASSIFICATION_TYPE":"U","NORAD_CAT_ID":38011,"ELEMENT_SET_NO":999,"REV_AT_EPOCH":76967,"BSTAR":0.00020589736,"MEAN_MOTION_DOT":1.593e-5,"MEAN_MOTION_DDOT":0},{"OBJECT_NAME":"FENGYUN 1C DEB","OBJECT_ID":"1999-025KW","EPOCH":"2026-03-09T15:30:12.536352","MEAN_MOTION":14.67654771,"ECCENTRICITY":0.0064473,"INCLINATION":98.9173,"RA_OF_ASC_NODE":93.3382,"ARG_OF_PERICENTER":103.0929,"MEAN_ANOMALY":24.0746,"EPHEMERIS_TYPE":0,"CLASSIFICATION_TYPE":"U","NORAD_CAT_ID":29972,"ELEMENT_SET_NO":999,"REV_AT_EPOCH":758,"BSTAR":0.0012006,"MEAN_MOTION_DOT":6.991e-5,"MEAN_MOTION_DDOT":0}]
